     2.11           N: GPS NAV DATA                         RINEX VERSION / TYPE
teqc  2019Feb25                         20230316 08:07:21UTCPGM / RUN BY / DATE
Linux2.6.32-573.12.1.el6.x86_64|x86_64|gcc|Win64-MinGW64|=+ COMMENT
                                                            END OF HEADER
10 23  3 15  8  0  0.0-2.861628308892D-05-1.591615728103D-12 0.000000000000D+00
    6.000000000000D+01-9.237500000000D+01 4.087670202324D-09-1.742660438676D+00
   -4.813075065613D-06 8.474871865474D-03 7.351860404015D-06 5.153689371109D+03
    2.880000000000D+05 1.154839992523D-07-1.609461762188D+00-2.607703208923D-08
    9.773670999256D-01 2.436250000000D+02-2.431847474403D+00-7.741751240076D-09
    2.828689227297D-10 1.000000000000D+00 2.253000000000D+03 0.000000000000D+00
    2.000000000000D+00 0.000000000000D+00 2.328306436539D-09 6.000000000000D+01
    2.846100000000D+05
13 23  3 15  8  0  0.0 4.907324910164D-04 5.798028723802D-12 0.000000000000D+00
    3.100000000000D+01-2.090625000000D+01 4.530545716364D-09 2.134924580201D+00
   -1.175329089165D-06 6.799091584980D-03 8.318573236465D-06 5.153661561966D+03
    2.880000000000D+05-9.499490261078D-08-4.223926731160D-01-1.098960638046D-07
    9.698140421790D-01 2.238125000000D+02 9.252542933323D-01-7.762466225358D-09
    2.421529365915D-10 1.000000000000D+00 2.253000000000D+03 0.000000000000D+00
    2.000000000000D+00 0.000000000000D+00-1.117587089539D-08 3.100000000000D+01
    2.846100000000D+05
14 23  3 15  8  0  0.0-3.488268703222D-06 1.023181539495D-11 0.000000000000D+00
    1.820000000000D+02 6.628125000000D+01 4.579119305959D-09-9.845415778800D-01
    3.363937139511D-06 2.791148610413D-03 8.393079042435D-06 5.153669925690D+03
    2.880000000000D+05 8.009374141693D-08 1.567042536057D+00-1.564621925354D-07
    9.491763189007D-01 2.153437500000D+02-3.074270731830D+00-7.962831283237D-09
   -3.335853260289D-10 1.000000000000D+00 2.253000000000D+03 0.000000000000D+00
    2.000000000000D+00 0.000000000000D+00-7.916241884232D-09 4.380000000000D+02
    2.846100000000D+05
15 23  3 15  8  0  0.0 2.170680090785D-05 3.410605131648D-12 0.000000000000D+00
    4.600000000000D+01-4.140625000000D+01 5.388796076033D-09 1.609054904190D+00
   -2.313405275345D-06 1.475750934333D-02 8.609145879745D-06 5.153687496185D+03
    2.880000000000D+05-3.017485141754D-07-6.979079161060D-01-2.291053533554D-07
    9.320454238445D-01 2.029375000000D+02 1.183566716899D+00-8.317488919829D-09
    3.328710085349D-10 1.000000000000D+00 2.253000000000D+03 0.000000000000D+00
    2.000000000000D+00 0.000000000000D+00-1.071020960808D-08 4.600000000000D+01
    2.846100000000D+05
17 23  3 15  8  0  0.0 7.055625319481D-04 2.160049916711D-12 0.000000000000D+00
    2.400000000000D+01 6.984375000000D+01 3.951236227095D-09 2.530648193826D+00
    3.673136234283D-06 1.357315585483D-02 4.310160875320D-06 5.153733139038D+03
    2.880000000000D+05 1.545995473862D-07 2.643814114864D+00 2.793967723846D-08
    9.753104975056D-01 3.005625000000D+02-1.414408890482D+00-7.694963777283D-09
   -5.714523906158D-12 1.000000000000D+00 2.253000000000D+03 0.000000000000D+00
    2.000000000000D+00 0.000000000000D+00-1.117587089539D-08 2.400000000000D+01
    2.846100000000D+05
19 23  3 15  8  0  0.0 2.902555279434D-04 5.115907697473D-12 0.000000000000D+00
    1.500000000000D+01 6.634375000000D+01 4.091242011839D-09-1.594347694272D+00
    3.648921847343D-06 9.180163964629D-03 4.870817065239D-06 5.153611345291D+03
    2.880000000000D+05-1.192092895508D-07 2.688398054524D+00 4.656612873077D-08
    9.743527572233D-01 2.974062500000D+02 2.252445129986D+00-8.044620969372D-09
    1.714357128479D-10 1.000000000000D+00 2.253000000000D+03 0.000000000000D+00
    2.000000000000D+00 0.000000000000D+00-1.536682248116D-08 1.500000000000D+01
    2.846100000000D+05
23 23  3 15  8  0  0.0 1.072650775313D-05 2.046363078989D-12 0.000000000000D+00
    6.800000000000D+01-1.023437500000D+02 4.206603954060D-09-5.530888643827D-01
   -5.250796675682D-06 3.030325286090D-03 7.495284080505D-06 5.153656166077D+03
    2.880000000000D+05 2.980232238770D-08-1.636308033723D+00 1.117587089539D-08
    9.724920000353D-01 2.416875000000D+02-3.087159948581D+00-7.897472009688D-09
    2.025084405721D-10 1.000000000000D+00 2.253000000000D+03 0.000000000000D+00
    2.000000000000D+00 0.000000000000D+00-8.381903171539D-09 6.800000000000D+01
    2.846100000000D+05
24 23  3 15  8  0  0.0-1.123328693211D-04-1.534772309242D-11 0.000000000000D+00
    5.200000000000D+01 7.937500000000D+00 5.427726268437D-09 6.414787594795D-01
    6.239861249924D-07 1.375891268253D-02 7.620081305504D-06 5.153652261734D+03
    2.880000000000D+05-1.452863216400D-07 4.004892960210D-01 1.396983861923D-07
    9.343258337127D-01 2.189375000000D+02 8.879112188491D-01-8.489639213849D-09
   -3.135844917068D-10 1.000000000000D+00 2.253000000000D+03 0.000000000000D+00
    2.000000000000D+00 0.000000000000D+00 2.328306436539D-09 5.200000000000D+01
    2.846100000000D+05
30 23  3 15  8  0  0.0-5.268254317343D-04 1.477928890381D-12 0.000000000000D+00
    9.100000000000D+01 8.625000000000D+00 5.269862324297D-09-3.881741297877D-01
    2.998858690262D-07 6.236850516871D-03 7.422640919685D-06 5.153620096207D+03
    2.880000000000D+05-1.862645149231D-09 4.970962088638D-01 1.154839992523D-07
    9.358443134206D-01 2.204687500000D+02-2.635330417393D+00-8.368919779400D-09
   -3.128701742128D-10 1.000000000000D+00 2.253000000000D+03 0.000000000000D+00
    2.000000000000D+00 0.000000000000D+00 3.725290298462D-09 9.100000000000D+01
    2.846100000000D+05
12 23  3 15  7 59 44.0-3.517144359648D-04-4.661160346586D-12 0.000000000000D+00
    1.000000000000D+00 8.506250000000D+01 4.279463894363D-09-1.043698863138D+00
    4.447996616364D-06 8.939197985455D-03 8.629634976387D-06 5.153646268845D+03
    2.879840000000D+05-6.146728992462D-08 1.604578911758D+00 1.508742570877D-07
    9.658114471120D-01 2.174062500000D+02 1.346324999063D+00-7.959974013261D-09
   -3.171560791770D-10 1.000000000000D+00 2.253000000000D+03 0.000000000000D+00
    2.000000000000D+00 0.000000000000D+00-1.257285475731D-08 1.000000000000D+00
    2.853000000000D+05
12 23  3 15  9 59 44.0-3.517484292388D-04-4.661160346586D-12 0.000000000000D+00
    3.000000000000D+00 6.984375000000D+01 4.336609293887D-09 6.405380958399D-03
    3.598630428314D-06 8.937137667090D-03 8.350238204002D-06 5.153642068863D+03
    2.951840000000D+05-1.396983861923D-07 1.604521484909D+00 7.078051567078D-08
    9.658091064431D-01 2.231250000000D+02 1.346417809512D+00-7.976046489944D-09
   -3.410856319608D-10 1.000000000000D+00 2.253000000000D+03 0.000000000000D+00
    2.000000000000D+00 0.000000000000D+00-1.257285475731D-08 3.000000000000D+00
    2.880300000000D+05
13 23  3 15 10  0  0.0 4.907744005322D-04 5.798028723802D-12 0.000000000000D+00
    3.200000000000D+01-1.840625000000D+01 4.529117081375D-09-3.098055404020D+00
   -1.046806573868D-06 6.798896589316D-03 8.359551429749D-06 5.153661785126D+03
    2.952000000000D+05 3.725290298462D-09-4.224484966070D-01-1.378357410431D-07
    9.698158854558D-01 2.221250000000D+02 9.252375590124D-01-7.752823272256D-09
    2.650110408897D-10 1.000000000000D+00 2.253000000000D+03 0.000000000000D+00
    2.000000000000D+00 0.000000000000D+00-1.117587089539D-08 3.200000000000D+01
    2.880300000000D+05
15 23  3 15 10  0  0.0 2.173101529479D-05 3.410605131648D-12 0.000000000000D+00
    4.700000000000D+01-3.868750000000D+01 5.284148674178D-09 2.659264898246D+00
   -2.125278115273D-06 1.475749816746D-02 8.475035429001D-06 5.153686782837D+03
    2.952000000000D+05 5.215406417847D-08-6.979661563377D-01-1.695007085800D-07
    9.320492362090D-01 1.988750000000D+02 1.183535419229D+00-7.988189665298D-09
    3.175132379241D-10 1.000000000000D+00 2.253000000000D+03 0.000000000000D+00
    2.000000000000D+00 0.000000000000D+00-1.071020960808D-08 4.700000000000D+01
    2.880300000000D+05
19 23  3 15 10  0  0.0 2.902918495238D-04 5.115907697473D-12 0.000000000000D+00
    1.600000000000D+01 6.290625000000D+01 4.040168199992D-09-5.441178674361D-01
    3.341585397720D-06 9.180861292407D-03 5.239620804787D-06 5.153612182617D+03
    2.952000000000D+05-1.955777406693D-07 2.688340618898D+00-1.322478055954D-07
    9.743538222277D-01 2.892500000000D+02 2.252431229339D+00-8.032119858115D-09
    6.000249602733D-11 1.000000000000D+00 2.253000000000D+03 0.000000000000D+00
    2.000000000000D+00 0.000000000000D+00-1.536682248116D-08 1.600000000000D+01
    2.880300000000D+05
10 23  3 15 10  0  0.0-2.862745895982D-05-1.591615728103D-12 0.000000000000D+00
    6.100000000000D+01-9.768750000000D+01 4.110885409858D-09-6.924398238352D-01
   -4.887580871582D-06 8.474560687318D-03 7.705762982368D-06 5.153689966202D+03
    2.952000000000D+05 7.636845111847D-08-1.609517508145D+00 1.639127731323D-07
    9.773682556309D-01 2.390625000000D+02-2.431900859209D+00-7.903186549640D-09
    2.175090663137D-10 1.000000000000D+00 2.253000000000D+03 0.000000000000D+00
    2.000000000000D+00 0.000000000000D+00 2.328306436539D-09 6.100000000000D+01
    2.880300000000D+05
17 23  3 15 10  0  0.0 7.055778987706D-04 2.160049916711D-12 0.000000000000D+00
    2.500000000000D+01 6.943750000000D+01 3.939092607652D-09-2.702417287716D+00
    3.663823008537D-06 1.357128203381D-02 5.196779966354D-06 5.153736639023D+03
    2.952000000000D+05 1.396983861923D-07 2.643758636622D+00 5.774199962616D-08
    9.753105179865D-01 2.867812500000D+02-1.414389401487D+00-7.691391523679D-09
    1.285767846360D-11 1.000000000000D+00 2.253000000000D+03 0.000000000000D+00
    2.000000000000D+00 0.000000000000D+00-1.117587089539D-08 2.500000000000D+01
    2.880300000000D+05
